ISS (NAUKA)             
1 49044U 21066A   24181.79216613  .00020211  00000+0  36172-3 0  9994
2 49044  51.6396 252.8553 0011414  20.8757  82.0584 15.49899443166391
FREGAT DEB              
1 49271U 11037PF  24181.52611709  .00048855  00000+0  95096-1 0  9991
2 49271  51.6703 312.5316 1003182 151.7563 214.1631 12.17920015136704
CSS (WENTIAN)           
1 53239U 22085A   24181.56606021  .00048374  00000+0  51910-3 0  9995
2 53239  41.4689   7.6017 0005138 298.8521  61.1803 15.62948260102475
CSS (MENGTIAN)          
1 54216U 22143A   24181.56606021  .00048374  00000+0  51910-3 0  9996
2 54216  41.4689   7.6017 0005138 298.8521  61.1803 15.62948260 93627
TIANZHOU-7              
1 58811U 24013A   24181.56606021  .00048374  00000+0  51910-3 0  9999
2 58811  41.4689   7.6017 0005138 298.8521  61.1803 15.62948260179717
CYGNUS NG-20            
1 58898U 24021A   24181.79216613  .00020211  00000+0  36172-3 0  9995
2 58898  51.6396 252.8553 0011414  20.8757  82.0584 15.49899443 22782
PROGRESS-MS 26          
1 58961U 24029A   24181.79216613  .00020211  00000+0  36172-3 0  9994
2 58961  51.6396 252.8553 0011414  20.8757  82.0584 15.49899443 20848
CREW DRAGON 8           
1 59097U 24042A   24181.79216613  .00020211  00000+0  36172-3 0  9990
2 59097  51.6396 252.8553 0011414  20.8757  82.0584 15.49899443 18059
SOYUZ-MS 25             
1 59294U 24055A   24181.79216613  .00020211  00000+0  36172-3 0  9993
2 59294  51.6396 252.8553 0011414  20.8757  82.0584 15.49899443 15044
MICROORBITER-1          
1 59483U 98067WF  24181.71166826  .00172703  00000+0  14304-2 0  9995
2 59483  51.6311 248.0177 0011864 355.5873   4.5017 15.69084958 12446
CURTIS                  
1 59507U 98067WG  24181.48520685  .00116856  00000+0  11803-2 0  9991
2 59507  51.6310 250.2584 0008891 354.0819   6.0069 15.64415373 12403
KASHIWA                 
1 59508U 98067WH  24181.59939722  .00222818  00000+0  16387-2 0  9998
2 59508  51.6282 248.0091 0013079 355.9868   4.1022 15.71752502 12446
1998-067WJ              
1 59559U 98067WJ  24181.41318282  .00115956  00000+0  12393-2 0  9994
2 59559  51.6340 251.2915 0008412 335.3128  24.7463 15.62987526 11255
1998-067WK              
1 59560U 98067WK  24181.59098122  .00294795  00000+0  19269-2 0  9991
2 59560  51.6296 247.9601 0015365 346.3436  13.7146 15.74256863 11230
1998-067WL              
1 59561U 98067WL  24181.48469965  .00050101  00000+0  68284-3 0  9990
2 59561  51.6343 252.5211 0005399 343.7398  16.3419 15.57001222 11215
BURSTCUBE               
1 59562U 98067WM  24181.54231098  .00118231  00000+0  12468-2 0  9993
2 59562  51.6344 250.6557 0009166 358.9159   1.1814 15.63312332 11257
SNOOPI                  
1 59563U 98067WN  24181.51927955  .00096548  00000+0  11023-2 0  9997
2 59563  51.6356 251.2556 0007723   0.3980 359.7019 15.61379021 11248
SHENZHOU-18 (SZ-18)     
1 59591U 24078A   24181.56606021  .00048374  00000+0  51910-3 0  9996
2 59591  41.4689   7.6017 0005138 298.8521  61.1803 15.62948260  8815
1998-067WP              
1 59596U 98067WP  24181.47456458  .00152312  00000+0  14199-2 0  9992
2 59596  51.6321 250.1969 0010356 341.8354  18.2270 15.66272432 11289
1998-067WQ              
1 59597U 98067WQ  24181.78999206  .00152317  00000+0  14043-2 0  9993
2 59597  51.6356 248.5659 0010543 343.2800  16.7847 15.66545317 11306
SZ-17 MODULE            
1 59624U 23164C   24181.78414964  .00046894  00000+0  43921-3 0  9993
2 59624  41.4771   5.7754 0007422 330.7770  29.2655 15.66366227  9510
PROGRESS-MS 27          
1 59913U 24103A   24181.79216613  .00020211  00000+0  36172-3 0  9995
2 59913  51.6396 252.8553 0011414  20.8757  82.0584 15.49899443  4499
STARLINER CFT-1         
1 59968U 24109A   24181.79216613  .00020211  00000+0  36172-3 0  9991
2 59968  51.6396 252.8553 0011414  20.8757  82.0584 15.49899443  3555
